TANSTAAFL-2             
1 62378U 24247B   26067.20753490  .00013897  00000+0  50872-3 0  9998
2 62378  44.9880 125.0934 0003072 298.8909  61.1666 15.28016845 67506
STARLINK-36432          
1 67342U 26003J   26068.46583842  .00023149  00000+0  84776-3 0  9998
2 67342  42.9946 227.9807 0000188 317.7969  42.2868 15.27592232  8794
