[{"OBJECT_NAME":"TANSTAAFL-2","OBJECT_ID":"2024-247B","EPOCH":"2026-03-08T04:58:51.015360","MEAN_MOTION":15.28016845,"ECCENTRICITY":0.00030723,"INCLINATION":44.988,"RA_OF_ASC_NODE":125.0934,"ARG_OF_PERICENTER":298.8909,"MEAN_ANOMALY":61.1666,"EPHEMERIS_TYPE":0,"CLASSIFICATION_TYPE":"U","NORAD_CAT_ID":62378,"ELEMENT_SET_NO":999,"REV_AT_EPOCH":6750,"BSTAR":0.00050871624,"MEAN_MOTION_DOT":0.00013897,"MEAN_MOTION_DDOT":0},{"OBJECT_NAME":"STARLINK-36432","OBJECT_ID":"2026-003J","EPOCH":"2026-03-09T11:10:48.439488","MEAN_MOTION":15.27592232,"ECCENTRICITY":1.881e-5,"INCLINATION":42.9946,"RA_OF_ASC_NODE":227.9807,"ARG_OF_PERICENTER":317.7969,"MEAN_ANOMALY":42.2868,"EPHEMERIS_TYPE":0,"CLASSIFICATION_TYPE":"U","NORAD_CAT_ID":67342,"ELEMENT_SET_NO":999,"REV_AT_EPOCH":879,"BSTAR":0.00084775661,"MEAN_MOTION_DOT":0.00023149,"MEAN_MOTION_DDOT":0}]
